STARLINK-36942
1 68030U 26040R   26090.83335647 -.01907768  00000+0 -23331-1 0  9997
2 68030  97.2856  40.3697 0001848 105.1269 145.6766 15.63509224  5995
